GLOBALSTAR M082 [+]     
1 38042U 11080C   24047.41240295 -.00000100  00000+0  23084-4 0  9993
2 38042  52.0085  47.2235 0000641 173.1380 334.8101 12.62266014562021
GLOBALSTAR M092 [+]     
1 38043U 11080D   24047.51499118 -.00000086  00000+0  99712-4 0  9999
2 38043  52.0080 137.2654 0000945 111.5735 261.3800 12.62276592560490
GLOBALSTAR M090 [+]     
1 38044U 11080E   24047.44224844 -.00000098  00000+0  29872-4 0  9997
2 38044  51.9898  41.5671 0000305 152.1845  12.3815 12.62266206562140
GLOBALSTAR M086 [+]     
1 38045U 11080F   24047.90945272 -.00000091  00000+0  69026-4 0  9992
2 38045  51.9911  40.6587 0000766 336.9875  30.9537 12.62267300562153
GLOBALSTAR M097 [+]     
1 39072U 13005A   24047.93399728 -.00000086  00000+0  96566-4 0  9997
2 39072  52.0064 314.6395 0000373  53.4382 306.6519 12.62260652509409
GLOBALSTAR M093 [+]     
1 39073U 13005B   24047.90747278 -.00000079  00000+0  13761-3 0  9999
2 39073  51.9824 308.8014 0000333  41.9737 318.1155 12.62261118509353
